{
    "links": {
        "self": "http://www.neowsapp.com/rest/v1/neo/3653682?api_key=iIulBulltgU6a56xZRHN4H3l9WmuAYTsLGpBGhQ2"
    },
    "id": "3653682",
    "neo_reference_id": "3653682",
    "name": "(2013 VR12)",
    "designation": "2013 VR12",
    "nasa_jpl_url": "http://ssd.jpl.nasa.gov/sbdb.cgi?sstr=3653682",
    "absolute_magnitude_h": 24.8,
    "estimated_diameter": {
        "kilometers": {
            "estimated_diameter_min": 0.0291443905,
            "estimated_diameter_max": 0.0651688382
        },
        "meters": {
            "estimated_diameter_min": 29.1443904535,
            "estimated_diameter_max": 65.1688382168
        },
        "miles": {
            "estimated_diameter_min": 0.018109479,
            "estimated_diameter_max": 0.0404940262
        },
        "feet": {
            "estimated_diameter_min": 95.6180819754,
            "estimated_diameter_max": 213.8085311752
        }
    },
    "is_potentially_hazardous_asteroid": false,
    "close_approach_data": [
        {
            "close_approach_date": "2013-11-02",
            "close_approach_date_full": "2013-Nov-02 17:58",
            "epoch_date_close_approach": 1383415080000,
            "relative_velocity": {
                "kilometers_per_second": "5.7029764153",
                "kilometers_per_hour": "20530.7150949143",
                "miles_per_hour": "12756.9879432816"
            },
            "miss_distance": {
                "astronomical": "0.0969822227",
                "lunar": "37.7260846303",
                "kilometers": "14508333.943785649",
                "miles": "9015060.6787499962"
            },
            "orbiting_body": "Earth"
        }
    ],
    "orbital_data": {
        "orbit_id": "7",
        "orbit_determination_date": "2017-04-06 08:43:42",
        "first_observation_date": "2013-11-09",
        "last_observation_date": "2013-11-28",
        "data_arc_in_days": 19,
        "observations_used": 32,
        "orbit_uncertainty": "8",
        "minimum_orbit_intersection": ".0969835",
        "jupiter_tisserand_invariant": "3.222",
        "epoch_osculation": "2456610.5",
        "eccentricity": ".5651791619878705",
        "semi_major_axis": "2.504211884210872",
        "inclination": "1.025349432239453",
        "ascending_node_longitude": "49.51005184113069",
        "orbital_period": "1447.454881437702",
        "perihelion_distance": "1.088883510052505",
        "perihelion_argument": "352.6331808022029",
        "aphelion_distance": "3.919540258369238",
        "perihelion_time": "2456600.968365610335",
        "mean_anomaly": "2.370635813443202",
        "mean_motion": ".2487124155762463",
        "equinox": "J2000",
        "orbit_class": {
            "orbit_class_type": "AMO",
            "orbit_class_description": "Near-Earth asteroid orbits similar to that of 1221 Amor",
            "orbit_class_range": "1.017 AU < q (perihelion) < 1.3 AU"
        }
    },
    "is_sentry_object": false
}